BEIJING 1               
1 28890U 05043A   22354.14725849  .00000334  00000+0  76673-4 0  9997
2 28890  98.1380 113.3833 0014210 316.4267  43.5805 14.61564119914262
HJ-1A                   
1 33320U 08041A   22354.60586326  .00000633  00000+0  94187-4 0  9990
2 33320  97.6607  18.7746 0020877 350.4778   9.6038 14.78024109769889
HJ-1B                   
1 33321U 08041B   22354.62344991  .00001304  00000+0  18548-3 0  9995
2 33321  97.6760  22.7302 0034413   7.2496 352.9215 14.78099447769886
YAOGAN 4                
1 33446U 08061A   22354.55050229  .00000838  00000+0  12407-3 0  9994
2 33446  97.8361 289.1924 0014757 250.5878 109.3738 14.77630584757072
DEIMOS-1                
1 35681U 09041A   22354.09188169  .00000547  00000+0  93975-4 0  9997
2 35681  97.6926 195.4543 0001927  34.9387 325.1948 14.72206050719082
UK-DMC 2                
1 35683U 09041C   22354.53439812  .00000830  00000+0  14073-3 0  9998
2 35683  97.7095 157.7316 0001706  73.0767 287.0635 14.71642453718877
RISAT 1                 
1 38248U 12017A   22354.49660438  .00005257  00000+0  29897-3 0  9998
2 38248  97.5488   3.9293 0003792   4.8081 355.3186 15.13293518586969
DMC3-FM1                
1 40715U 15032A   22354.65418516  .00000736  00000+0  98559-4 0  9995
2 40715  97.8215 237.5550 0004517 275.4639  84.6067 14.82322899400879
DMC3-FM2                
1 40716U 15032B   22354.61009328  .00000868  00000+0  11503-3 0  9998
2 40716  97.8259 238.2506 0006499 278.6588  81.3955 14.82317990400872
DMC3-FM3                
1 40717U 15032C   22354.63052256  .00000740  00000+0  99069-4 0  9992
2 40717  97.8301 239.2658 0008046 275.1041  84.9235 14.82312725400877
